ONEWEB-0029             
1 45445U 20020X   25272.84499606 -.00000073  00000+0 -24259-3 0  9996
2 45445  87.8797  72.9149 0001493  84.7482 275.3816 13.11413724268535
ONEWEB-0068             
1 45446U 20020Y   25272.90506125  .00000566  00000+0  15617-2 0  9991
2 45446  87.8797  72.8913 0001452  83.7405 276.3889 13.11414602268484
ONEWEB-0046             
1 45447U 20020Z   25272.89672394  .00000602  00000+0  16614-2 0  9991
2 45447  87.8795  72.9027 0001704  81.2453 278.8868 13.11416033268491
ONEWEB-0063             
1 45448U 20020AA  25272.92552709 -.00000230  00000+0 -68527-3 0  9993
2 45448  87.8796  72.8954 0001855  87.9086 272.2255 13.11413271268582
ONEWEB-0019             
1 45449U 20020AB  25272.89926470  .00000604  00000+0  16695-2 0  9991
2 45449  87.8792  72.9150 0001527  91.8392 268.2911 13.11417439268425
ONEWEB-0094             
1 45450U 20020AC  25272.96969821 -.00000244  00000+0 -66151-3 0  9993
2 45450  87.9078  57.5838 0001579  95.5741 264.5570 13.17638275272045
ONEWEB-0087             
1 45451U 20020AD  25273.16445122 -.00000435  00000+0 -12633-2 0  9997
2 45451  87.8807  72.7983 0001342  87.4453 272.6828 13.11415167268502
ONEWEB-0082             
1 45452U 20020AE  25273.16120774 -.00000547  00000+0 -15783-2 0  9994
2 45452  87.8804  72.8243 0001439  92.9729 267.1564 13.11415223268592
ONEWEB-0050             
1 45453U 20020AF  25272.99614361 -.00033158  00000+0 -35362-2 0  9994
2 45453  88.4470 269.5714 0007324 129.7122 230.4753 14.89140649301642
ONEWEB-0034             
1 45454U 20020AG  25272.87721741  .00000012  00000+0 -20481-5 0  9994
2 45454  87.8802  72.9018 0001604  90.3978 269.7334 13.11418039268473
ONEWEB-0060             
1 45455U 20020AH  25272.39061300 -.00000315  00000+0 -92511-3 0  9998
2 45455  87.8786  73.0235 0000601  45.7070 314.4107 13.11414109268369
ONEWEB-0086             
1 45456U 20020AJ  25272.90350359  .00000624  00000+0  17251-2 0  9999
2 45456  87.8796  72.8930 0000984 111.9012 248.2221 13.11416742268496
ONEWEB-0088             
1 45457U 20020AK  25272.42367255  .00000233  00000+0  62207-3 0  9998
2 45457  87.8808  72.9373 0001627  82.7454 277.3859 13.11417590268361
ONEWEB-0102             
1 47258U 20100A   25272.86108566 -.00000282  00000+0 -81931-3 0  9995
2 47258  87.8935  42.4014 0001749 101.5836 258.5489 13.12441982230582
ONEWEB-0109             
1 47259U 20100B   25272.86921007  .00000013  00000+0 -60381-6 0  9999
2 47259  87.8934  42.3675 0001657 101.5537 258.5778 13.12443656230413
ONEWEB-0110             
1 47260U 20100C   25272.89516602  .00000401  00000+0  10800-2 0  9992
2 47260  87.8933  42.3459 0001383 101.1965 258.9319 13.12441917230582
ONEWEB-0111             
1 47261U 20100D   25272.84973824 -.00000346  00000+0 -99649-3 0  9990
2 47261  87.8933  42.3727 0001679 100.6962 259.4356 13.12443848230414
ONEWEB-0114             
1 47262U 20100E   25272.88056983  .00000477  00000+0  12901-2 0  9991
2 47262  87.8935  42.3607 0001898 101.7136 258.4205 13.12442848230378
ONEWEB-0117             
1 47263U 20100F   25272.87245672  .00000028  00000+0  43134-4 0  9992
2 47263  87.8937  42.3602 0001613  97.2276 262.9036 13.12443810230388
ONEWEB-0118             
1 47264U 20100G   25272.90490644  .00000261  00000+0  69148-3 0  9999
2 47264  87.8934  42.3529 0001970  94.3981 265.7373 13.12442630230587
ONEWEB-0119             
1 47265U 20100H   25272.39880662 -.00000243  00000+0 -71117-3 0  9997
2 47265  87.8932  42.4912 0001690 100.9959 259.1360 13.12442834230490
ONEWEB-0120             
1 47266U 20100J   25272.87908505  .00000292  00000+0  77726-3 0  9992
2 47266  87.8937  42.3967 0001718  99.4146 260.7176 13.12443460230585
ONEWEB-0121             
1 47267U 20100K   25272.86759979 -.00000077  00000+0 -25029-3 0  9993
2 47267  87.8934  42.3658 0001459  98.7377 261.3917 13.12444339230496
ONEWEB-0122             
1 47268U 20100L   25272.86256951 -.00000237  00000+0 -69402-3 0  9997
2 47268  87.8934  42.3697 0001609 100.0574 260.0736 13.12441751230404
ONEWEB-0123             
1 47269U 20100M   25272.78161362 -.00000286  00000+0 -83128-3 0  9995
2 47269  87.8934  42.4135 0001723  96.5441 263.5883 13.12444797230530
ONEWEB-0124             
1 47270U 20100N   25272.84649816 -.00000327  00000+0 -94537-3 0  9991
2 47270  87.8936  42.4028 0001528  97.0034 263.1269 13.12443623230421
ONEWEB-0125             
1 47271U 20100P   25272.90002905  .00000409  00000+0  11018-2 0  9992
2 47271  87.8933  42.3550 0001690  86.3240 273.8082 13.12441587230493
ONEWEB-0126             
1 47272U 20100Q   25272.38759364 -.00000364  00000+0 -10471-2 0  9997
2 47272  87.8940  42.4794 0001708  99.8931 260.2390 13.12442290230493
ONEWEB-0127             
1 47273U 20100R   25272.88705701  .00000476  00000+0  12886-2 0  9993
2 47273  87.8934  42.3913 0001665  99.3412 260.7905 13.12443087230582
ONEWEB-0128             
1 47274U 20100S   25272.83351980  .00000077  00000+0  18001-3 0  9998
2 47274  87.8926  42.4250 0001451 103.3622 256.7669 13.12441040230591
ONEWEB-0129             
1 47275U 20100T   25272.88868172  .00000600  00000+0  16312-2 0  9994
2 47275  87.8937  42.3595 0002582 115.4637 244.6759 13.12442385230534
ONEWEB-0130             
1 47276U 20100U   25272.84000497 -.00000183  00000+0 -54526-3 0  9997
2 47276  87.8931  42.3662 0001582 100.5262 259.6045 13.12440494230490
ONEWEB-0131             
1 47277U 20100V   25272.91300108 -.00000024  00000+0 -10088-3 0  9997
2 47277  87.8933  42.3815 0001534  95.4989 264.6314 13.12443563230549
ONEWEB-0132             
1 47278U 20100W   25272.86597274 -.00000134  00000+0 -40867-3 0  9994
2 47278  87.8933  42.3930 0001604  97.4970 262.6341 13.12446240230439
ONEWEB-0133             
1 47279U 20100X   25272.88204786  .00000544  00000+0  14762-2 0  9997
2 47279  87.8923  42.3569 0001473 100.4422 259.6872 13.12442624230592
ONEWEB-0134             
1 47280U 20100Y   25273.08006764 -.00000355  00000+0 -10217-2 0  9991
2 47280  87.8933  42.3070 0001644 108.0951 252.0357 13.12441357230590
ONEWEB-0135             
1 47281U 20100Z   25272.89841384  .00000364  00000+0  97644-3 0  9993
2 47281  87.8933  42.3835 0001392 110.1407 249.9872 13.12443289230593
ONEWEB-0136             
1 47282U 20100AA  25272.84163870 -.00000197  00000+0 -58281-3 0  9996
2 47282  87.8933  42.3631 0001699 114.9043 245.2262 13.12442845230517
ONEWEB-0137             
1 47283U 20100AB  25272.87570256  .00000234  00000+0  61642-3 0  9995
2 47283  87.8935  42.3624 0001811  94.7295 265.4041 13.12443904230428
ONEWEB-0138             
1 47284U 20100AC  25273.08330314 -.00000352  00000+0 -10148-2 0  9996
2 47284  87.8933  42.3309 0001677 105.7935 254.3378 13.12441065230539
ONEWEB-0139             
1 47285U 20100AD  25272.89370022  .00000435  00000+0  11745-2 0  9999
2 47285  87.8933  42.3587 0001663  99.0826 261.0490 13.12442681230587
ONEWEB-0140             
1 47286U 20100AE  25273.07682706 -.00000362  00000+0 -10426-2 0  9992
2 47286  87.8933  42.3076 0001632 102.6833 257.4478 13.12443830230577
ONEWEB-0141             
1 47287U 20100AF  25272.81716431  .00000535  00000+0  14507-2 0  9991
2 47287  87.8926  42.3729 0001919  90.8752 269.2597 13.12444703230529
ONEWEB-0142             
1 47288U 20100AG  25272.88233990  .00000370  00000+0  99427-3 0  9995
2 47288  87.8937  42.3780 0002029  97.7671 262.3688 13.12444030230526
ONEWEB-0143             
1 47289U 20100AH  25272.81567726  .00000449  00000+0  12114-2 0  9990
2 47289  87.8934  42.3884 0001648  98.1276 262.0040 13.12444527230497
ONEWEB-0144             
1 47290U 20100AJ  25272.86433904 -.00000227  00000+0 -66587-3 0  9997
2 47290  87.8926  42.3525 0001879 104.6730 255.4607 13.12445328230424
ONEWEB-0145             
1 47291U 20100AK  25273.06384927  .00000101  00000+0  24672-3 0  9999
2 47291  87.8933  42.3446 0001671  98.3253 261.8065 13.12443685230641
ONEWEB-0146             
1 47292U 20100AL  25273.06061316  .00000276  00000+0  73063-3 0  9995
2 47292  87.8935  42.3321 0001365  89.7492 270.3793 13.12440713230557
ONEWEB-0147             
1 47293U 20100AM  25272.87407338  .00000248  00000+0  65341-3 0  9991
2 47293  87.8935  42.3475 0001532 106.9790 253.1506 13.12442898230420
ONEWEB-0115             
1 48042U 21025A   25272.80069417  .00000499  00000+0  13310-2 0  9992
2 48042  87.9053  11.9467 0001692  97.6769 262.4552 13.13469217219412
ONEWEB-0152             
1 48043U 21025B   25272.81422778  .00000219  00000+0  56518-3 0  9995
2 48043  87.9048  11.9574 0001664 101.5620 258.5696 13.13471857219379
ONEWEB-0153             
1 48044U 21025C   25272.79222211  .00000181  00000+0  46001-3 0  9997
2 48044  87.9054  11.9622 0001792  99.7227 260.4105 13.13473026219360
ONEWEB-0154             
1 48045U 21025D   25272.63649030  .00000136  00000+0  33831-3 0  9990
2 48045  87.9050  11.9898 0001688  99.9836 260.1484 13.13470249219309
ONEWEB-0116             
1 48046U 21025E   25273.20866319  .00000063  00000+0  13724-3 0  9994
2 48046  87.9055  11.8593 0001632  97.7923 262.3391 13.13468366219520
ONEWEB-0150             
1 48047U 21025F   25272.80408036  .00000339  00000+0  89323-3 0  9992
2 48047  87.9053  11.9342 0001897  94.0838 266.0508 13.13470036219360
ONEWEB-0107             
1 48048U 21025G   25272.80578344  .00000395  00000+0  10470-2 0  9991
2 48048  87.9052  11.9316 0001985 103.7341 256.4010 13.13469473219348
ONEWEB-0101             
1 48049U 21025H   25272.69235249 -.00000314  00000+0 -89539-3 0  9999
2 48049  87.9048  11.9929 0001817 105.3213 254.8118 13.13468818219303
ONEWEB-0113             
1 48050U 21025J   25272.81363916  .00000268  00000+0  69257-3 0  9999
2 48050  87.9052  11.9065 0001684  88.6726 271.4597 13.13978511219419
ONEWEB-0112             
1 48051U 21025K   25272.81085937  .00000308  00000+0  80806-3 0  9992
2 48051  87.9051  11.9268 0001800  96.6480 263.4854 13.13471694219417
